NORAD_CAT_ID,OBJECT_NAME,OBJECT_TYPE,EPOCH,MEAN_MOTION,ECCENTRICITY,INCLINATION,RA_OF_ASC_NODE,ARG_OF_PERICENTER,MEAN_ANOMALY,BSTAR,MEAN_MOTION_DOT,MEAN_MOTION_DDOT,TLE_LINE0,TLE_LINE1,TLE_LINE2,SEMIMAJOR_AXIS,PERIOD,APOGEE,PERIGEE,DECAYED
51754.0,STARLINK-3457,PAYLOAD,2024-04-02 13:09:57,15.08834905,0.000146,53.2171,238.868,100.406,259.7097,0.00012616,1.72e-05,0.0,0 STARLINK-3457,1 51754U 22016AS  24093.54858213  .00001720  00000-0  12616-3 0  9996,2 51754  53.2171 238.8680 0001460 100.4060 259.7097 15.08834905117102,6917.896,95.438,540.771,538.751,0.0
51754.0,STARLINK-3457,PAYLOAD,2024-04-02 16:20:43,15.08834636,0.0001437,53.2171,238.2736,99.6712,260.4443,0.00011092,1.478e-05,0.0,0 STARLINK-3457,1 51754U 22016AS  24093.68106268  .00001478  00000-0  11092-3 0  9994,2 51754  53.2171 238.2736 0001437  99.6712 260.4443 15.08834636117122,6917.897,95.438,540.756,538.768,0.0
51754.0,STARLINK-3457,PAYLOAD,2024-04-03 09:49:58,15.0883233,0.000144,53.2169,235.0018,101.3615,258.7539,0.00027275,4.055e-05,0.0,0 STARLINK-3457,1 51754U 22016AS  24094.40970520  .00004055  00000-0  27275-3 0  9999,2 51754  53.2169 235.0018 0001440 101.3615 258.7539 15.08832330118355,6917.904,95.438,540.765,538.773,0.0
51754.0,STARLINK-3457,PAYLOAD,2024-04-03 13:00:44,15.08836449,0.000143,53.218,234.4074,102.5614,257.5538,0.00012456,1.695e-05,0.0,0 STARLINK-3457,1 51754U 22016AS  24094.54218224  .00001695  00000-0  12456-3 0  9992,2 51754  53.2180 234.4074 0001430 102.5614 257.5538 15.08836449117253,6917.891,95.438,540.746,538.767,0.0
51754.0,STARLINK-3457,PAYLOAD,2024-04-03 16:11:30,15.08839205,0.00013,53.2175,233.8153,99.1226,260.9913,0.00013352,1.838e-05,0.0,0 STARLINK-3457,1 51754U 22016AS  24094.67466102  .00001838  00000-0  13352-3 0  9991,2 51754  53.2175 233.8153 0001300  99.1226 260.9913 15.08839205117274,6917.883,95.438,540.647,538.848,0.0
51754.0,STARLINK-3457,PAYLOAD,2024-04-04 01:43:48,15.08849018,0.0001259,53.2175,232.0313,96.8226,263.291,0.00011398,1.527e-05,0.0,0 STARLINK-3457,1 51754U 22016AS  24095.07209433  .00001527  00000-0  11398-3 0  9991,2 51754  53.2175 232.0313 0001259  96.8226 263.2910 15.08849018118457,6917.853,95.437,540.589,538.847,0.0
51754.0,STARLINK-3457,PAYLOAD,2024-04-04 12:51:31,15.08832985,0.0001472,53.2198,229.9508,103.2553,256.8603,0.00011667,1.569e-05,0.0,0 STARLINK-3457,1 51754U 22016AS  24095.53578478  .00001569  00000-0  11667-3 0  9995,2 51754  53.2198 229.9508 0001472 103.2553 256.8603 15.08832985118526,6917.902,95.438,540.785,538.749,0.0
51754.0,STARLINK-3457,PAYLOAD,2024-04-04 14:26:55,15.08832152,0.0001424,53.2198,229.6537,98.5526,261.5628,0.00010394,1.366e-05,0.0,0 STARLINK-3457,1 51754U 22016AS  24095.60202650  .00001366  00000-0  10394-3 0  9990,2 51754  53.2198 229.6537 0001424  98.5526 261.5628 15.08832152117411,6917.904,95.438,540.754,538.784,0.0
51754.0,STARLINK-3457,PAYLOAD,2024-04-04 16:02:18,15.08833432,0.0001474,53.2191,229.3577,103.1709,256.9447,0.00012753,1.742e-05,0.0,0 STARLINK-3457,1 51754U 22016AS  24095.66826516  .00001742  00000-0  12753-3 0  9998,2 51754  53.2191 229.3577 0001474 103.1709 256.9447 15.08833432117426,6917.9,95.438,540.785,538.746,0.0
51754.0,STARLINK-3457,PAYLOAD,2024-04-05 01:34:35,15.08848129,0.000135,53.218,227.5717,98.6387,261.4759,0.00017057,2.428e-05,0.0,0 STARLINK-3457,1 51754U 22016AS  24096.06569444  .00002428  00000-0  17057-3 0  9991,2 51754  53.2180 227.5717 0001350  98.6387 261.4759 15.08848129118600,6917.856,95.437,540.654,538.787,0.0
51754.0,STARLINK-3457,PAYLOAD,2024-04-05 12:42:18,15.08836334,0.0001536,53.2193,225.4914,100.3734,259.7431,4.3939e-05,4.11e-06,0.0,0 STARLINK-3457,1 51754U 22016AS  24096.52938594  .00000411  00000-0  43939-4 0  9997,2 51754  53.2193 225.4914 0001536 100.3734 259.7431 15.08836334118672,6917.892,95.438,540.819,538.694,0.0
51754.0,STARLINK-3457,PAYLOAD,2024-04-05 14:17:42,15.08836992,0.0001605,53.2195,225.1932,97.891,262.2264,3.7016e-05,3.01e-06,0.0,0 STARLINK-3457,1 51754U 22016AS  24096.59562579  .00000301  00000-0  37016-4 0  9997,2 51754  53.2195 225.1932 0001605  97.8910 262.2264 15.08836992117564,6917.89,95.438,540.865,538.644,0.0
51754.0,STARLINK-3457,PAYLOAD,2024-04-05 15:53:05,15.08838846,0.0001557,53.2192,224.8966,97.7067,262.4102,6.104e-05,6.84e-06,0.0,0 STARLINK-3457,1 51754U 22016AS  24096.66186410  .00000684  00000-0  61040-4 0  9999,2 51754  53.2192 224.8966 0001557  97.7067 262.4102 15.08838846117576,6917.884,95.438,540.826,538.672,0.0
51754.0,STARLINK-3457,PAYLOAD,2024-04-06 01:25:23,15.08850389,0.000161,53.2194,223.1122,91.8366,268.2811,0.00011767,1.586e-05,0.0,0 STARLINK-3457,1 51754U 22016AS  24097.05929474  .00001586  00000-0  11767-3 0  9990,2 51754  53.2194 223.1122 0001610  91.8366 268.2811 15.08850389118759,6917.849,95.437,540.827,538.6,0.0
51754.0,STARLINK-3457,PAYLOAD,2024-04-06 17:19:15,15.08835235,0.0001504,53.2175,220.137,82.6635,277.4528,-3.6679e-05,-8.72e-06,0.0,0 STARLINK-3457,1 51754U 22016AS  24097.72170211 -.00000872  00000-0 -36679-4 0  9990,2 51754  53.2175 220.1370 0001504  82.6635 277.4528 15.08835235118850,6917.895,95.438,540.8,538.72,0.0
51754.0,STARLINK-3457,PAYLOAD,2024-04-07 07:37:44,15.08829155,0.0001554,53.2174,217.4606,87.5935,272.5235,5.7217e-05,6.22e-06,0.0,0 STARLINK-3457,1 51754U 22016AS  24098.31787221  .00000622  00000-0  57217-4 0  9993,2 51754  53.2174 217.4606 0001554  87.5935 272.5235 15.08829155118947,6917.914,95.438,540.854,538.703,0.0
51754.0,STARLINK-3457,PAYLOAD,2024-04-07 13:59:19,15.08798792,0.000242,53.2191,216.2705,88.5099,271.617,-0.00018749,-3.268e-05,0.0,0 STARLINK-3457,1 51754U 22016AS  24098.58286767 -.00003268  00000-0 -18749-3 0  9998,2 51754  53.2191 216.2705 0002420  88.5099 271.6170 15.08798792117868,6918.006,95.44,541.546,538.197,0.0
51754.0,STARLINK-3457,PAYLOAD,2024-04-07 17:10:06,15.08802714,0.0002363,53.2173,215.6754,87.7276,272.3987,-0.00023253,-3.983e-05,0.0,0 STARLINK-3457,1 51754U 22016AS  24098.71534798 -.00003983  00000-0 -23253-3 0  9993,2 51754  53.2173 215.6754 0002363  87.7276 272.3987 15.08802714119001,6917.994,95.44,541.494,538.225,0.0
51754.0,STARLINK-3457,PAYLOAD,2024-04-08 13:50:02,15.08853003,0.0001404,53.2123,211.8107,82.4402,277.675,0.00027234,4.051e-05,0.0,0 STARLINK-3457,1 51754U 22016AS  24099.57642296  .00004051  00000-0  27234-3 0  9999,2 51754  53.2123 211.8107 0001404  82.4402 277.6750 15.08853003119131,6917.841,95.437,540.677,538.734,0.0
51754.0,STARLINK-3457,PAYLOAD,2024-04-09 10:30:04,15.08833126,0.0001225,53.2229,207.9433,101.7228,258.3902,0.00036151,5.469e-05,0.0,0 STARLINK-3457,1 51754U 22016AS  24100.43755016  .00005469  00000-0  36151-3 0  9994,2 51754  53.2229 207.9433 0001225 101.7228 258.3902 15.08833126119261,6917.901,95.438,540.614,538.919,0.0
51754.0,STARLINK-3457,PAYLOAD,2024-04-09 13:40:51,15.08826574,0.0001431,53.2199,207.3499,102.1179,257.9973,0.00026814,3.981e-05,0.0,0 STARLINK-3457,1 51754U 22016AS  24100.57003740  .00003981  00000-0  26814-3 0  9991,2 51754  53.2199 207.3499 0001431 102.1179 257.9973 15.08826574119286,6917.921,95.438,540.776,538.796,0.0
51754.0,STARLINK-3457,PAYLOAD,2024-04-10 13:31:37,15.08849335,0.0001281,53.2216,202.8922,96.5967,263.5171,-0.00016043,-2.841e-05,0.0,0 STARLINK-3457,1 51754U 22016AS  24101.56363217 -.00002841  00000-0 -16043-3 0  9998,2 51754  53.2216 202.8922 0001281  96.5967 263.5171 15.08849335119431,6917.852,95.437,540.603,538.831,0.0
51754.0,STARLINK-3457,PAYLOAD,2024-04-11 13:22:24,15.08834473,0.0001252,53.2175,198.4306,98.8562,261.2571,0.00022134,3.236e-05,0.0,0 STARLINK-3457,1 51754U 22016AS  24102.55723101  .00003236  00000-0  22134-3 0  9995,2 51754  53.2175 198.4306 0001252  98.8562 261.2571 15.08834473118463,6917.897,95.438,540.628,538.896,0.0
51754.0,STARLINK-3457,PAYLOAD,2024-04-11 22:54:42,15.08853103,0.000131,53.2188,196.6458,97.2536,262.8605,0.0002332,3.427e-05,0.0,0 STARLINK-3457,1 51754U 22016AS  24102.95465778  .00003427  00000-0  23320-3 0  9992,2 51754  53.2188 196.6458 0001310  97.2536 262.8605 15.08853103119641,6917.84,95.437,540.612,538.799,0.0
51754.0,STARLINK-3457,PAYLOAD,2024-04-12 13:13:11,15.08836878,0.0001514,53.2173,193.97,99.0752,261.0412,7.7453e-05,9.45e-06,0.0,0 STARLINK-3457,1 51754U 22016AS  24103.55083242  .00000945  00000-0  77453-4 0  9990,2 51754  53.2173 193.9700 0001514  99.0752 261.0412 15.08836878119738,6917.89,95.438,540.802,538.708,0.0
51754.0,STARLINK-3457,PAYLOAD,2024-04-13 11:28:35,15.08842548,0.0001559,53.2172,189.8086,105.5068,254.6097,5.4788e-05,5.84e-06,0.0,0 STARLINK-3457,1 51754U 22016AS  24104.47819007  .00000584  00000-0  54788-4 0  9993,2 51754  53.2172 189.8086 0001559 105.5068 254.6097 15.08842548118759,6917.873,95.437,540.816,538.659,0.0
51754.0,STARLINK-3457,PAYLOAD,2024-04-14 12:54:46,15.08843043,0.0001479,53.2167,185.0466,84.9286,275.1875,0.00017695,2.53e-05,0.0,0 STARLINK-3457,1 51754U 22016AS  24105.53803303  .00002530  00000-0  17695-3 0  9991,2 51754  53.2167 185.0466 0001479  84.9286 275.1875 15.08843043120033,6917.871,95.437,540.759,538.713,0.0
51754.0,STARLINK-3457,PAYLOAD,2024-04-15 12:45:33,15.08844569,0.0001578,53.2163,180.5865,74.6759,285.4407,0.00019861,2.875e-05,0.0,0 STARLINK-3457,1 51754U 22016AS  24106.53163416  .00002875  00000-0  19861-3 0  9995,2 51754  53.2163 180.5865 0001578  74.6759 285.4407 15.08844569119063,6917.866,95.437,540.823,538.64,0.0
51754.0,STARLINK-3457,PAYLOAD,2024-04-16 11:00:56,15.08848035,0.0001419,53.2165,176.423,78.3418,281.7733,0.0001706,2.429e-05,0.0,0 STARLINK-3457,1 51754U 22016AS  24107.45899065  .00002429  00000-0  17060-3 0  9997,2 51754  53.2165 176.4230 0001419  78.3418 281.7733 15.08848035119201,6917.856,95.437,540.702,538.739,0.0
51754.0,STARLINK-3457,PAYLOAD,2024-04-17 04:30:11,15.08849412,0.0001418,53.2159,173.1514,86.5968,273.5187,0.00020609,2.994e-05,0.0,0 STARLINK-3457,1 51754U 22016AS  24108.18762759  .00002994  00000-0  20609-3 0  9997,2 51754  53.2159 173.1514 0001418  86.5968 273.5187 15.08849412120432,6917.852,95.437,540.698,538.736,0.0
